start=new Date('2023-05-13T00:00:00.000Z').valueOf();
sats=[{"CLASSIFICATION_TYPE":"U","MEAN_ELEMENT_THEORY":"SGP4","COUNTRY_CODE":"US","TLE_LINE2":"2 47841  53.0572 185.8393 0002046 117.5842 242.5355 15.06396716121289","NORAD_CAT_ID":"47841","RCS_SIZE":"LARGE","EPHEMERIS_TYPE":"0","ECCENTRICITY":"0.00020460","GP_ID":"231707588","FILE":"3906381","TLE_LINE1":"1 47841U 21018BG  23132.38164503  .00002859  00000-0  21078-3 0  9992","DECAY_DATE":null,"EPOCH":"2023-05-12T09:09:34.130592","MEAN_MOTION_DDOT":"0.0000000000000","LAUNCH_DATE":"2021-03-11","PERIAPSIS":"545.807","REV_AT_EPOCH":"12128","ARG_OF_PERICENTER":"117.5842","OBJECT_ID":"2021-018BG","INCLINATION":"53.0572","ELEMENT_SET_NO":"999","SEMIMAJOR_AXIS":"6925.359","REF_FRAME":"TEME","RA_OF_ASC_NODE":"185.8393","BSTAR":"0.00021078000000","OBJECT_TYPE":"PAYLOAD","APOAPSIS":"548.641","MEAN_MOTION_DOT":"0.00002859","OBJECT_NAME":"STARLINK-2433","MEAN_MOTION":"15.06396716","MEAN_ANOMALY":"242.5355","TIME_SYSTEM":"UTC","PERIOD":"95.592","CENTER_NAME":"EARTH","SITE":"AFETR"},{"SITE":"AFETR","CENTER_NAME":"EARTH","PERIOD":"95.590","TIME_SYSTEM":"UTC","MEAN_ANOMALY":"310.8166","MEAN_MOTION":"15.06427757","OBJECT_NAME":"STARLINK-2434","MEAN_MOTION_DOT":"0.00020644","APOAPSIS":"548.175","OBJECT_TYPE":"PAYLOAD","RA_OF_ASC_NODE":"217.6752","BSTAR":"0.00139970000000","REF_FRAME":"TEME","SEMIMAJOR_AXIS":"6925.263","INCLINATION":"53.0521","ELEMENT_SET_NO":"999","OBJECT_ID":"2021-018BH","REV_AT_EPOCH":"12085","ARG_OF_PERICENTER":"49.2954","PERIAPSIS":"546.082","LAUNCH_DATE":"2021-03-11","EPOCH":"2023-05-11T23:16:25.025376","DECAY_DATE":null,"MEAN_MOTION_DDOT":"0.0000000000000","TLE_LINE1":"1 47842U 21018BH  23131.96973409  .00020644  00000-0  13997-2 0  9991","FILE":"3905921","GP_ID":"231670272","ECCENTRICITY":"0.00015110","EPHEMERIS_TYPE":"0","RCS_SIZE":"LARGE","NORAD_CAT_ID":"47842","TLE_LINE2":"2 47842  53.0521 217.6752 0001511  49.2954 310.8166 15.06427757120859","MEAN_ELEMENT_THEORY":"SGP4","COUNTRY_CODE":"US","CLASSIFICATION_TYPE":"U"},{"OBJECT_TYPE":"PAYLOAD","OBJECT_NAME":"STARLINK-2435","APOAPSIS":"548.155","MEAN_MOTION_DOT":"0.00010923","MEAN_MOTION":"15.06408378","PERIOD":"95.592","SITE":"AFETR","CENTER_NAME":"EARTH","TIME_SYSTEM":"UTC","MEAN_ANOMALY":"293.9939","ARG_OF_PERICENTER":"66.1196","REV_AT_EPOCH":"12088","LAUNCH_DATE":"2021-03-11","PERIAPSIS":"546.220","INCLINATION":"53.0518","ELEMENT_SET_NO":"999","OBJECT_ID":"2021-018BJ","SEMIMAJOR_AXIS":"6925.323","REF_FRAME":"TEME","BSTAR":"0.00075091000000","RA_OF_ASC_NODE":"212.7984","FILE":"3905921","ECCENTRICITY":"0.00013970","GP_ID":"231670514","TLE_LINE1":"1 47843U 21018BJ  23131.94255245  .00010923  00000-0  75091-3 0  9994","MEAN_MOTION_DDOT":"0.0000000000000","DECAY_DATE":null,"EPOCH":"2023-05-11T22:37:16.531680","MEAN_ELEMENT_THEORY":"SGP4","COUNTRY_CODE":"US","TLE_LINE2":"2 47843  53.0518 212.7984 0001397  66.1196 293.9939 15.06408378120887","CLASSIFICATION_TYPE":"U","NORAD_CAT_ID":"47843","RCS_SIZE":"LARGE","EPHEMERIS_TYPE":"0"},{"MEAN_ANOMALY":"317.6982","TIME_SYSTEM":"UTC","SITE":"AFETR","CENTER_NAME":"EARTH","PERIOD":"95.591","MEAN_MOTION":"15.06413356","MEAN_MOTION_DOT":"0.00020772","APOAPSIS":"548.519","OBJECT_NAME":"STARLINK-2446","OBJECT_TYPE":"PAYLOAD","RA_OF_ASC_NODE":"207.8115","BSTAR":"0.00140880000000","SEMIMAJOR_AXIS":"6925.308","REF_FRAME":"TEME","OBJECT_ID":"2021-018BK","INCLINATION":"53.0518","ELEMENT_SET_NO":"999","PERIAPSIS":"545.826","LAUNCH_DATE":"2021-03-11","REV_AT_EPOCH":"12093","ARG_OF_PERICENTER":"42.4157","DECAY_DATE":null,"MEAN_MOTION_DDOT":"0.0000000000000","EPOCH":"2023-05-11T22:35:17.176128","TLE_LINE1":"1 47844U 21018BK  23131.94117102  .00020772  00000-0  14088-2 0  9995","GP_ID":"231669770","ECCENTRICITY":"0.00019440","FILE":"3905921","EPHEMERIS_TYPE":"0","RCS_SIZE":"LARGE","NORAD_CAT_ID":"47844","CLASSIFICATION_TYPE":"U","TLE_LINE2":"2 47844  53.0518 207.8115 0001944  42.4157 317.6982 15.06413356120931","COUNTRY_CODE":"US","MEAN_ELEMENT_THEORY":"SGP4"},{"EPHEMERIS_TYPE":"0","CLASSIFICATION_TYPE":"U","TLE_LINE2":"2 47845  53.0539 203.8519 0001014 103.8556 256.2546 15.06399309121073","MEAN_ELEMENT_THEORY":"SGP4","COUNTRY_CODE":"US","RCS_SIZE":"LARGE","NORAD_CAT_ID":"47845","MEAN_MOTION_DDOT":"0.0000000000000","DECAY_DATE":null,"EPOCH":"2023-05-12T19:43:50.647008","GP_ID":"231708088","ECCENTRICITY":"0.00010140","FILE":"3906381","TLE_LINE1":"1 47845U 21018BL  23132.82211397  .00016685  00000-0  11364-2 0  9997","SEMIMAJOR_AXIS":"6925.351","REF_FRAME":"TEME","BSTAR":"0.00113640000000","RA_OF_ASC_NODE":"203.8519","PERIAPSIS":"546.513","LAUNCH_DATE":"2021-03-11","REV_AT_EPOCH":"12107","ARG_OF_PERICENTER":"103.8556","OBJECT_ID":"2021-018BL","ELEMENT_SET_NO":"999","INCLINATION":"53.0539","MEAN_MOTION":"15.06399309","MEAN_ANOMALY":"256.2546","TIME_SYSTEM":"UTC","SITE":"AFETR","CENTER_NAME":"EARTH","PERIOD":"95.592","OBJECT_TYPE":"PAYLOAD","MEAN_MOTION_DOT":"0.00016685","APOAPSIS":"547.918","OBJECT_NAME":"STARLINK-2453"},{"EPHEMERIS_TYPE":"0","COUNTRY_CODE":"US","MEAN_ELEMENT_THEORY":"SGP4","TLE_LINE2":"2 47846  53.0537 203.5665 0001353  77.1867 282.9273 15.06399471121135","CLASSIFICATION_TYPE":"U","NORAD_CAT_ID":"47846","RCS_SIZE":"LARGE","DECAY_DATE":null,"EPOCH":"2023-05-12T21:12:43.209216","MEAN_MOTION_DDOT":"0.0000000000000","FILE":"3906381","ECCENTRICITY":"0.00013530","GP_ID":"231708340","TLE_LINE1":"1 47846U 21018BM  23132.88383344  .00018928  00000-0  12862-2 0  9992","SEMIMAJOR_AXIS":"6925.350","REF_FRAME":"TEME","BSTAR":"0.00128620000000","RA_OF_ASC_NODE":"203.5665","REV_AT_EPOCH":"12113","ARG_OF_PERICENTER":"77.1867","LAUNCH_DATE":"2021-03-11","PERIAPSIS":"546.278","INCLINATION":"53.0537","ELEMENT_SET_NO":"999","OBJECT_ID":"2021-018BM","MEAN_MOTION":"15.06399471","PERIOD":"95.592","SITE":"AFETR","CENTER_NAME":"EARTH","MEAN_ANOMALY":"282.9273","TIME_SYSTEM":"UTC","OBJECT_TYPE":"PAYLOAD","OBJECT_NAME":"STARLINK-2456","APOAPSIS":"548.152","MEAN_MOTION_DOT":"0.00018928"},{"OBJECT_ID":"2021-021A","ELEMENT_SET_NO":"999","INCLINATION":"53.0531","LAUNCH_DATE":"2021-03-14","PERIAPSIS":"546.418","REV_AT_EPOCH":"12030","ARG_OF_PERICENTER":"85.1807","BSTAR":"0.00134340000000","RA_OF_ASC_NODE":"237.4215","SEMIMAJOR_AXIS":"6925.299","REF_FRAME":"TEME","APOAPSIS":"547.910","MEAN_MOTION_DOT":"0.00019794","OBJECT_NAME":"STARLINK-2258","OBJECT_TYPE":"PAYLOAD","TIME_SYSTEM":"UTC","MEAN_ANOMALY":"274.9305","PERIOD":"95.591","CENTER_NAME":"EARTH","SITE":"AFETR","MEAN_MOTION":"15.06416216","NORAD_CAT_ID":"47860","RCS_SIZE":"LARGE","CLASSIFICATION_TYPE":"U","COUNTRY_CODE":"US","MEAN_ELEMENT_THEORY":"SGP4","TLE_LINE2":"2 47860  53.0531 237.4215 0001077  85.1807 274.9305 15.06416216120300","EPHEMERIS_TYPE":"0","TLE_LINE1":"1 47860U 21021A   23132.02686027  .00019794  00000-0  13434-2 0  9990","ECCENTRICITY":"0.00010770","GP_ID":"231671015","FILE":"3905921","DECAY_DATE":null,"EPOCH":"2023-05-12T00:38:40.727328","MEAN_MOTION_DDOT":"0.0000000000000"},{"SEMIMAJOR_AXIS":"6925.309","REF_FRAME":"TEME","RA_OF_ASC_NODE":"222.6433","BSTAR":"0.00139130000000","LAUNCH_DATE":"2021-03-14","PERIAPSIS":"546.299","ARG_OF_PERICENTER":"60.0076","REV_AT_EPOCH":"12061","OBJECT_ID":"2021-021B","INCLINATION":"53.0528","ELEMENT_SET_NO":"999","MEAN_MOTION":"15.06412852","TIME_SYSTEM":"UTC","MEAN_ANOMALY":"300.1039","PERIOD":"95.591","SITE":"AFETR","CENTER_NAME":"EARTH","OBJECT_TYPE":"PAYLOAD","APOAPSIS":"548.050","MEAN_MOTION_DOT":"0.00020510","OBJECT_NAME":"STARLINK-2280","EPHEMERIS_TYPE":"0","CLASSIFICATION_TYPE":"U","MEAN_ELEMENT_THEORY":"SGP4","COUNTRY_CODE":"US","TLE_LINE2":"2 47861  53.0528 222.6433 0001264  60.0076 300.1039 15.06412852120615","NORAD_CAT_ID":"47861","RCS_SIZE":"LARGE","DECAY_DATE":null,"EPOCH":"2023-05-11T23:29:01.137696","MEAN_MOTION_DDOT":"0.0000000000000","ECCENTRICITY":"0.00012640","GP_ID":"231669272","FILE":"3905921","TLE_LINE1":"1 47861U 21021B   23131.97848539  .00020510  00000-0  13913-2 0  9992"},{"CLASSIFICATION_TYPE":"U","TLE_LINE2":"2 47862  53.0513 215.9376 0000960  63.5274 296.5813 15.06376392120257","MEAN_ELEMENT_THEORY":"SGP4","COUNTRY_CODE":"US","RCS_SIZE":"LARGE","NORAD_CAT_ID":"47862","EPHEMERIS_TYPE":"0","GP_ID":"231684377","ECCENTRICITY":"0.00009600","FILE":"3906298","TLE_LINE1":"1 47862U 21021C   23132.35676229  .00006653  00000-0  46541-3 0  9997","DECAY_DATE":null,"EPOCH":"2023-05-12T08:33:44.261856","MEAN_MOTION_DDOT":"0.0000000000000","PERIAPSIS":"546.621","LAUNCH_DATE":"2021-03-14","REV_AT_EPOCH":"12025","ARG_OF_PERICENTER":"63.5274","OBJECT_ID":"2021-021C","ELEMENT_SET_NO":"999","INCLINATION":"53.0513","SEMIMAJOR_AXIS":"6925.421","REF_FRAME":"TEME","BSTAR":"0.00046541000000","RA_OF_ASC_NODE":"215.9376","OBJECT_TYPE":"PAYLOAD","MEAN_MOTION_DOT":"0.00006653","APOAPSIS":"547.951","OBJECT_NAME":"STARLINK-2291","MEAN_MOTION":"15.06376392","MEAN_ANOMALY":"296.5813","TIME_SYSTEM":"UTC","SITE":"AFETR","CENTER_NAME":"EARTH","PERIOD":"95.594"},{"MEAN_MOTION":"15.06414088","SITE":"AFETR","CENTER_NAME":"EARTH","PERIOD":"95.591","TIME_SYSTEM":"UTC","MEAN_ANOMALY":"252.8123","OBJECT_TYPE":"PAYLOAD","OBJECT_NAME":"STARLINK-2293","MEAN_MOTION_DOT":"0.00035449","APOAPSIS":"547.587","SEMIMAJOR_AXIS":"6925.305","REF_FRAME":"TEME","RA_OF_ASC_NODE":"224.0446","BSTAR":"0.00238590000000","ARG_OF_PERICENTER":"107.2932","REV_AT_EPOCH":"12066","PERIAPSIS":"546.754","LAUNCH_DATE":"2021-03-14","INCLINATION":"53.0528","ELEMENT_SET_NO":"999","OBJECT_ID":"2021-021D","DECAY_DATE":null,"MEAN_MOTION_DDOT":"0.0000000000000","EPOCH":"2023-05-12T18:42:48.316032","FILE":"3906381","GP_ID":"231707842","ECCENTRICITY":"0.00006010","TLE_LINE1":"1 47863U 21021D   23132.77972588  .00035449  00000-0  23859-2 0  9992","EPHEMERIS_TYPE":"0","TLE_LINE2":"2 47863  53.0528 224.0446 0000601 107.2932 252.8123 15.06414088120661","MEAN_ELEMENT_THEORY":"SGP4","COUNTRY_CODE":"US","CLASSIFICATION_TYPE":"U","RCS_SIZE":"LARGE","NORAD_CAT_ID":"47863"}];
